43339,USA 283,2018,1436.11,-1.0,+,0.02,Active,1,GSO,USA,USA,Military,Communications,Atlas,1 43339U 18036A   24019.53751832 -.00000312  00000+0  00000+0 0  9995,2 43339   0.0118 103.2238 0000404 245.7239  97.0563  1.00271190 16450,1.0027119,4.04e-05,GEO
43432,COSMOS 2526,2018,1436.12,3000.0,+,0.03,Active,1,GSO,Kazakhstan,Russia/USSR,Commercial/Military,Communications,Proton,1 43432U 18037A   24019.51095052 -.00000340  00000+0  00000+0 0  9994,2 43432   0.0306 106.5048 0000407 303.8249  20.0682  1.00270019 21147,1.00270019,4.07e-05,GEO
43450,APSTAR-6C,2018,1436.07,-1.0,+,0.06,Active,1,GSO,PRC,China,Commercial,Communications,Long March,1 43450U 18041A   24020.53521556 -.00000313  00000+0  00000+0 0  9996,2 43450   0.0628 264.9335 0002536   8.6350 172.4987  1.00273074 21010,1.00273074,0.0002536,GEO
43488,SES-12,2018,1436.11,5300.0,+,0.01,Active,1,GSO,USA,SES,Commercial,Communications,Falcon,1 43488U 18049A   24020.39621389 -.00000265  00000+0  00000+0 0  9990,2 43488   0.0125  28.6299 0002628 252.0078  76.2462  1.00271699 20605,1.00271699,0.0002628,GEO
43491,FENGYUN 2H,2018,1436.1,1380.0,+,0.76,Active,1,GSO,PRC,China,Government,Earth Observation,Long March,1 43491U 18050A   24020.47680194 -.00000127  00000+0  00000+0 0  9991,2 43491   0.7583  88.3331 0000416 349.0831 292.9718  1.00271462 20622,1.00271462,4.16e-05,GEO
43539,BEIDOU-2 IGSO-7,2018,1436.49,800.0,+,55.13,Active,1,GSO,PRC,China,Government/Military,Navigation (Global or Regional Positioning),Long March,1 43539U 18057A   24010.86206958 -.00000075  00000+0  00000+0 0  9997,2 43539  55.1290 170.7303 0064938 228.9651 129.2611  1.00244014 20237,1.00244014,0.0064938,GSO
43562,TELSTAR 19V,2018,1436.13,7075.0,+,0.03,Active,1,GSO,USA,Canada,Commercial,Communications,Falcon,1 43562U 18059A   24019.51735764 -.00000275  00000+0  00000+0 0  9990,2 43562   0.0326 169.9918 0001027  37.3292  34.2926  1.00269560 20346,1.0026956,0.0001027,GEO
43611,TELSTAR 18V,2018,1436.11,7060.0,+,0.02,Active,1,GSO,USA,Canada,Commercial,Communications,Falcon,1 43611U 18069A   24019.68243735 -.00000289  00000+0  00000+0 0  9991,2 43611   0.0180  65.7883 0002097 231.1545 205.2830  1.00270641 19801,1.00270641,0.0002097,GEO
43632,AZERSPACE 2 (IS-38),2018,1436.09,3500.0,+,0.02,Active,1,GSO,French Guiana,Azerbaijan,Government,Communications,Ariane,1 43632U 18074A   24020.46992715  .00000141  00000+0  00000+0 0  9993,2 43632   0.0167  69.9159 0001713 231.7450  31.9397  1.00270916 19634,1.00270916,0.0001713,GEO
43633,HORIZONS-3E,2018,1436.1,6500.0,+,0.01,Active,1,GSO,French Guiana,INTELSAT,Commercial,Communications,Ariane,1 43633U 18074B   24020.07618861 -.00000026  00000+0  00000+0 0  9991,2 43633   0.0111 250.7439 0000924  41.0437  23.5825  1.00270182 19521,1.00270182,9.24e-05,GEO
43683,BEIDOU-3 G1,2018,1436.06,800.0,+,1.83,Active,1,GSO,PRC,China,Government/Military,Navigation (Global or Regional Positioning),Long March,1 43683U 18085A   24020.65733826 -.00000275  00000+0  00000+0 0  9997,2 43683   1.8347 116.2038 0001781 328.0013  51.9789  1.00273895 19255,1.00273895,0.0001781,GSO
43698,GSAT-29,2018,1436.06,3400.0,+,0.07,Active,1,GSO,India,India,Government,Communications,GSLV,1 43698U 18089A   24020.47192866  .00000089  00000+0  00000+0 0  9992,2 43698   0.0770  93.3773 0003489 186.3221  64.5894  1.00269406 18974,1.00269406,0.0003489,GEO
43824,GSAT-11,2018,1436.12,5854.0,+,0.11,Active,1,GSO,French Guiana,India,Government,Communications,Ariane,1 43824U 18100B   24020.47567064 -.00000072  00000+0  00000+0 0  9996,2 43824   0.1099 271.8978 0001540 108.1329 344.5336  1.00270536 18661,1.00270536,0.000154,GEO
43864,GSAT-7A,2018,1436.08,2250.0,+,0.1,Active,1,GSO,India,India,Military,Communications,GSLV,1 43864U 18105A   24020.47349507  .00000030  00000+0  00000+0 0  9998,2 43864   0.0928 266.2881 0002464   5.3772  80.9231  1.00273213 18640,1.00273213,0.0002464,GEO
43867,COSMOS 2533,2018,1436.12,3000.0,+,0.03,Active,1,GSO,Kazakhstan,Russia/USSR,Commercial/Military,Communications,Proton,1 43867U 18107A   24019.87896583 -.00000034  00000+0  00000+0 0  9991,2 43867   0.0338 114.1269 0000058 233.6639 157.3780  1.00270298 18619,1.00270298,5.8e-06,GEO
43874,TJS-3,2018,1436.08,-1.0,+,0.27,Active,1,GSO,PRC,China,Government,Technology Development,Long March,1 43874U 18110A   24020.71018519  .00000006  00000+0  00000+0 0  9991,2 43874   0.2700  88.9917 0004479 173.6677 285.5527  1.00273324 18678,1.00273324,0.0004479,GEO
43920,CHINASAT 2D (ZX 2D),2019,1436.06,5200.0,+,0.06,Active,1,GSO,PRC,China,Commercial/Government,Communications,Long March,1 43920U 19001A   24020.53521556 -.00000333  00000+0  00000+0 0  9997,2 43920   0.0600 255.0926 0002633 349.9836 196.9713  1.00273747 45265,1.00273747,0.0002633,GEO
44034,HELLAS-SAT 4 & SGS-1,2019,1436.05,6495.0,+,0.07,Active,1,GSO,French Guiana,Greece/Saudi Arabia,Commercial/Government,Communications,Ariane,1 44034U 19007A   24020.46870882  .00000157  00000+0  00000+0 0  9994,2 44034   0.0668 118.2857 0003517  53.2886 155.4730  1.00272621 18541,1.00272621,0.0003517,GEO
44035,GSAT-31,2019,1436.08,2536.0,+,0.04,Active,1,GSO,French Guiana,India,Government,Communications,Ariane,1 44035U 19007B   24020.47036226  .00000129  00000+0  00000+0 0  9991,2 44035   0.0341 242.7622 0006315  39.2935  54.4743  1.00271741 18163,1.00271741,0.0006315,GEO
44048,NUSANTARA SATU,2019,1436.12,4100.0,+,0.03,Active,1,GSO,USA,Indonesia,Commercial,Communications,Falcon,1 44048U 19009A   24019.77389067 -.00000230  00000+0  00000+0 0  9996,2 44048   0.0309 117.6357 0000914  53.8046  11.7949  1.00270453 17959,1.00270453,9.14e-05,GEO
44067,CHINASAT 6C (ZX 6C),2019,1436.08,4600.0,P,0.08,Active,1,GSO,PRC,China,Commercial/Government,Communications,Long March,1 44067U 19012A   24020.53521556 -.00000331  00000+0  00000+0 0  9990,2 44067   0.0819  93.0591 0005201 110.8565 238.5942  1.00272881 17923,1.00272881,0.0005201,GEO
44071,WGS 10 (USA 291),2019,1436.12,5990.0,+,0.01,Active,1,GSO,USA,USA,Military,Communications,Delta,1 44071U 19014A   24020.47297293  .00000051  00000+0  00000+0 0  9996,2 44071   0.0142  63.8598 0000416 209.5898  76.4405  1.00270571 17812,1.00270571,4.16e-05,GEO
44076,TIANLIAN 2-01,2019,1436.1,-1.0,+,0.11,Active,1,GSO,PRC,China,Government,Communications,Long March,1 44076U 19017A   24020.47627979 -.00000102  00000+0  00000+0 0  9990,2 44076   0.1114 256.3991 0003446  66.5383  44.8872  1.00271495 17834,1.00271495,0.0003446,GEO
44186,ARABSAT-6A,2019,1436.12,6465.0,+,0.04,Active,1,GSO,USA,Arabsat,Commercial,Communications,Falcon,1 44186U 19021A   24020.46688135  .00000158  00000+0  00000+0 0  9997,2 44186   0.0411  41.0815 0005590 248.8812  27.9186  1.00270828 17348,1.00270828,0.000559,GEO
44204,BEIDOU-3 IGSO-1,2019,1436.42,800.0,+,57.38,Active,1,GSO,PRC,China,Government/Military,Navigation (Global or Regional Positioning),Long March,1 44204U 19023A   23359.85561811 -.00000224  00000+0  00000+0 0  9993,2 44204  57.3835  47.0551 0023834 204.1671 266.3544  1.00248909 17270,1.00248909,0.0023834,GSO
