OBJECT_NAME,OBJECT_ID,EPOCH,MEAN_MOTION,ECCENTRICITY,INCLINATION,RA_OF_ASC_NODE,ARG_OF_PERICENTER,MEAN_ANOMALY,EPHEMERIS_TYPE,CLASSIFICATION_TYPE,NORAD_CAT_ID,ELEMENT_SET_NO,REV_AT_EPOCH,BSTAR,MEAN_MOTION_DOT,MEAN_MOTION_DDOT
USA 283,2018-036A,2024-01-19T12:54:01.582848,1.00271190,.0000404,0.0118,103.2238,245.7239,97.0563,0,U,43339,999,1645,0,-.312E-5,0
COSMOS 2526,2018-037A,2024-01-19T12:15:46.124928,1.00270019,.0000407,0.0306,106.5048,303.8249,20.0682,0,U,43432,999,2114,0,-.34E-5,0
APSTAR 6C,2018-041A,2024-01-20T12:50:42.624384,1.00273074,.0002536,0.0628,264.9335,8.6350,172.4987,0,U,43450,999,2101,0,-.313E-5,0
SES-12,2018-049A,2024-01-20T09:30:32.880096,1.00271699,.0002628,0.0125,28.6299,252.0078,76.2462,0,U,43488,999,2060,0,-.265E-5,0
FENGYUN 2H,2018-050A,2024-01-20T11:26:35.687616,1.00271462,.0000416,0.7583,88.3331,349.0831,292.9718,0,U,43491,999,2062,0,-.127E-5,0
BEIDOU-2 IGSO-7,2018-057A,2024-01-10T20:41:22.811712,1.00244014,.0064938,55.1290,170.7303,228.9651,129.2611,0,U,43539,999,2023,0,-.75E-6,0
TELSTAR 19V,2018-059A,2024-01-19T12:24:59.700096,1.00269560,.0001027,0.0326,169.9918,37.3292,34.2926,0,U,43562,999,2034,0,-.275E-5,0
TELSTAR 18V (APSTAR 5C),2018-069A,2024-01-19T16:22:42.587040,1.00270641,.0002097,0.0180,65.7883,231.1545,205.2830,0,U,43611,999,1980,0,-.289E-5,0
AZERSPACE 2 (IS-38),2018-074A,2024-01-20T11:16:41.705760,1.00270916,.0001713,0.0167,69.9159,231.7450,31.9397,0,U,43632,999,1963,0,.141E-5,0
HORIZONS-3E,2018-074B,2024-01-20T01:49:42.695904,1.00270182,.0000924,0.0111,250.7439,41.0437,23.5825,0,U,43633,999,1952,0,-.26E-6,0
BEIDOU-3 G1,2018-085A,2024-01-20T15:46:34.025664,1.00273895,.0001781,1.8347,116.2038,328.0013,51.9789,0,U,43683,999,1925,0,-.275E-5,0
GSAT-29,2018-089A,2024-01-20T11:19:34.636224,1.00269406,.0003489,0.0770,93.3773,186.3221,64.5894,0,U,43698,999,1897,0,.89E-6,0
GSAT-11,2018-100B,2024-01-20T11:24:57.943296,1.00270536,.000154,0.1099,271.8978,108.1329,344.5336,0,U,43824,999,1866,0,-.72E-6,0
GSAT-7A,2018-105A,2024-01-20T11:21:49.974048,1.00273213,.0002464,0.0928,266.2881,5.3772,80.9231,0,U,43864,999,1864,0,.3E-6,0
COSMOS 2533,2018-107A,2024-01-19T21:05:42.647712,1.00270298,.0000058,0.0338,114.1269,233.6639,157.3780,0,U,43867,999,1861,0,-.34E-6,0
TJS-3,2018-110A,2024-01-20T17:02:40.000416,1.00273324,.0004479,0.2700,88.9917,173.6677,285.5527,0,U,43874,999,1867,0,.6E-7,0
CHINASAT 2D (ZX 2D),2019-001A,2024-01-20T12:50:42.624384,1.00273747,.0002633,0.0600,255.0926,349.9836,196.9713,0,U,43920,999,4526,0,-.333E-5,0
HELLAS-SAT 4 & SGS-1,2019-007A,2024-01-20T11:14:56.442048,1.00272621,.0003517,0.0668,118.2857,53.2886,155.4730,0,U,44034,999,1854,0,.157E-5,0
GSAT-31,2019-007B,2024-01-20T11:17:19.299264,1.00271741,.0006315,0.0341,242.7622,39.2935,54.4743,0,U,44035,999,1816,0,.129E-5,0
NUSANTARA SATU,2019-009A,2024-01-19T18:34:24.153888,1.00270453,.0000914,0.0309,117.6357,53.8046,11.7949,0,U,44048,999,1795,0,-.23E-5,0
CHINASAT 6C (ZX 6C),2019-012A,2024-01-20T12:50:42.624384,1.00272881,.0005201,0.0819,93.0591,110.8565,238.5942,0,U,44067,999,1792,0,-.331E-5,0
WGS 10 (USA 291),2019-014A,2024-01-20T11:21:04.861152,1.00270571,.0000416,0.0142,63.8598,209.5898,76.4405,0,U,44071,999,1781,0,.51E-6,0
TIANLIAN 2-01,2019-017A,2024-01-20T11:25:50.573856,1.00271495,.0003446,0.1114,256.3991,66.5383,44.8872,0,U,44076,999,1783,0,-.102E-5,0
ARABSAT-6A,2019-021A,2024-01-20T11:12:18.548640,1.00270828,.000559,0.0411,41.0815,248.8812,27.9186,0,U,44186,999,1734,0,.158E-5,0
BEIDOU-3 IGSO-1,2019-023A,2023-12-25T20:32:05.404704,1.00248909,.0023834,57.3835,47.0551,204.1671,266.3544,0,U,44204,999,1727,0,-.224E-5,0
